NORAD_CAT_ID,OBJECT_NAME,OBJECT_TYPE,EPOCH,MEAN_MOTION,ECCENTRICITY,INCLINATION,RA_OF_ASC_NODE,ARG_OF_PERICENTER,MEAN_ANOMALY,BSTAR,MEAN_MOTION_DOT,MEAN_MOTION_DDOT,TLE_LINE0,TLE_LINE1,TLE_LINE2,SEMIMAJOR_AXIS,PERIOD,APOGEE,PERIGEE,DECAYED
52380.0,STARLINK-3793,PAYLOAD,2023-01-16 01:09:40,15.08858822,0.0002142,53.2181,295.5682,39.7096,320.4053,0.00052924,8.149e-05,0.0,0 STARLINK-3793,1 52380U 22045BB  23016.04838648  .00008149  00000-0  52924-3 0  9991,2 52380  53.2181 295.5682 0002142  39.7096 320.4053 15.08858822 42651,6917.823,95.436,541.17,538.206,0.0
52380.0,STARLINK-3793,PAYLOAD,2023-01-16 18:38:56,15.08836144,0.0002026999999999,53.2181,292.2973,31.9709,328.1406,-2.0131e-05,-6.09e-06,0.0,0 STARLINK-3793,1 52380U 22045BB  23016.77703830 -.00000609  00000-0 -20131-4 0  9996,2 52380  53.2181 292.2973 0002027  31.9709 328.1406 15.08836144 42767,6917.892,95.438,541.159,538.355,0.0
52380.0,STARLINK-3793,PAYLOAD,2023-01-17 13:43:34,15.08825233,0.0001694,53.2182,288.7293,57.7188,302.3968,-0.00021063,-3.637e-05,0.0,0 STARLINK-3793,1 52380U 22045BB  23017.57192477 -.00003637  00000-0 -21063-3 0  9992,2 52380  53.2182 288.7293 0001694  57.7188 302.3968 15.08825233 42886,6917.926,95.438,540.962,538.619,0.0
52380.0,STARLINK-3793,PAYLOAD,2023-01-17 21:40:29,15.088338,0.0001669,53.2176,287.2439,61.0652,299.0507,9.1027e-05,1.161e-05,0.0,0 STARLINK-3793,1 52380U 22045BB  23017.90312453  .00001161  00000-0  91027-4 0  9993,2 52380  53.2176 287.2439 0001669  61.0652 299.0507 15.08833800 42937,6917.899,95.438,540.919,538.61,0.0
52380.0,STARLINK-3793,PAYLOAD,2023-01-18 00:51:16,15.08840332,0.0001536,53.2176,286.6489,62.0143,298.1004,0.00057739,8.913e-05,0.0,0 STARLINK-3793,1 52380U 22045BB  23018.03560729  .00008913  00000-0  57739-3 0  9992,2 52380  53.2176 286.6489 0001536  62.0143 298.1004 15.08840332 42956,6917.879,95.438,540.807,538.682,0.0
52380.0,STARLINK-3793,PAYLOAD,2023-01-18 13:34:21,15.08841563,0.0001504,53.2169,284.2697,75.4779,284.638,0.00051838,7.972e-05,0.0,0 STARLINK-3793,1 52380U 22045BB  23018.56552864  .00007972  00000-0  51838-3 0  9999,2 52380  53.2169 284.2697 0001504  75.4779 284.6380 15.08841563 43035,6917.876,95.437,540.781,538.7,0.0
52380.0,STARLINK-3793,PAYLOAD,2023-01-18 21:31:17,15.0884484,0.0001365,53.2174,282.7834,79.4455,280.6691,0.00049631,7.621e-05,0.0,0 STARLINK-3793,1 52380U 22045BB  23018.89672606  .00007621  00000-0  49631-3 0  9991,2 52380  53.2174 282.7834 0001365  79.4455 280.6691 15.08844840 43084,6917.866,95.437,540.675,538.786,0.0
52380.0,STARLINK-3793,PAYLOAD,2023-01-19 10:14:22,15.08844959,0.0001155999999999,53.2168,280.4058,87.2828,272.8297,0.00021324,3.108e-05,0.0,0 STARLINK-3793,1 52380U 22045BB  23019.42664470  .00003108  00000-0  21324-3 0  9996,2 52380  53.2168 280.4058 0001156  87.2828 272.8297 15.08844959 43164,6917.865,95.437,540.53,538.931,0.0
52380.0,STARLINK-3793,PAYLOAD,2023-01-19 11:49:45,15.08844761,0.0001438,53.2169,280.1082,91.9719,268.1438,0.00013902,1.926e-05,0.0,0 STARLINK-3793,1 52380U 22045BB  23019.49288484  .00001926  00000-0  13902-3 0  9999,2 52380  53.2169 280.1082 0001438  91.9719 268.1438 15.08844761 43170,6917.866,95.437,540.726,538.736,0.0
52380.0,STARLINK-3793,PAYLOAD,2023-01-20 02:08:13,15.08836814,0.0001245,53.2166,277.4307,101.689,258.4242,0.00053902,8.3e-05,0.0,0 STARLINK-3793,1 52380U 22045BB  23020.08905068  .00008300  00000-0  53902-3 0  9997,2 52380  53.2166 277.4307 0001245 101.6890 258.4242 15.08836814 43266,6917.89,95.438,540.616,538.894,0.0
52380.0,STARLINK-3793,PAYLOAD,2023-01-20 10:05:09,15.08837958,0.0001244,53.2163,275.944,92.9032,267.2103,0.00092468,0.00014458,0.0,0 STARLINK-3793,1 52380U 22045BB  23020.42025446  .00014458  00000-0  92468-3 0  9999,2 52380  53.2163 275.9440 0001244  92.9032 267.2103 15.08837958 43313,6917.887,95.438,540.612,538.891,0.0
52380.0,STARLINK-3793,PAYLOAD,2023-01-21 09:55:57,15.08849358,0.0001385999999999,53.2168,271.4832,79.4479,280.66700000000003,0.0011312999999999,0.00017767,0.0,0 STARLINK-3793,1 52380U 22045BB  23021.41385506  .00017767  00000-0  11313-2 0  9990,2 52380  53.2168 271.4832 0001386  79.4479 280.6670 15.08849358 43467,6917.852,95.437,540.6759999999999,538.758,0.0
52380.0,STARLINK-3793,PAYLOAD,2023-01-21 21:03:39,15.08846913,0.0001730999999999,53.2156,269.403,75.3154,284.803,0.00077037,0.00011996,0.0,0 STARLINK-3793,1 52380U 22045BB  23021.87753573  .00011996  00000-0  77037-3 0  9997,2 52380  53.2156 269.4030 0001731  75.3154 284.8030 15.08846913 43538,6917.859,95.437,540.922,538.5269999999999,0.0
52380.0,STARLINK-3793,PAYLOAD,2023-01-23 01:40:35,15.08849991,9.51e-05,53.2169,264.0482,80.5083,279.6016,0.00033999,5.129e-05,0.0,0 STARLINK-3793,1 52380U 22045BB  23023.06985194  .00005129  00000-0  33999-3 0  9996,2 52380  53.2169 264.0482 0000951  80.5083 279.6016 15.08849991 43711,6917.85,95.437,540.373,539.057,0.0
52380.0,STARLINK-3793,PAYLOAD,2023-01-23 19:09:49,15.08842652,0.0001246,53.2168,260.7752,96.997,263.1164,0.00017793,2.545e-05,0.0,0 STARLINK-3793,1 52380U 22045BB  23023.79849365  .00002545  00000-0  17793-3 0  9998,2 52380  53.2168 260.7752 0001246  96.9970 263.1164 15.08842652 43828,6917.871999999999,95.437,540.599,538.875,0.0
52380.0,STARLINK-3793,PAYLOAD,2023-01-24 22:11:22,15.08846999,0.0001129,53.2159,255.7223,88.3925,271.7196,0.00012094,1.638e-05,0.0,0 STARLINK-3793,1 52380U 22045BB  23024.92457017  .00001638  00000-0  12094-3 0  9994,2 52380  53.2159 255.7223 0001129  88.3925 271.7196 15.08846999 43996,6917.859,95.437,540.505,538.943,0.0
52380.0,STARLINK-3793,PAYLOAD,2023-01-25 10:54:28,15.08840204,0.0001331999999999,53.2171,253.3459,89.8322,270.2823,8.0688e-05,9.96e-06,0.0,0 STARLINK-3793,1 52380U 22045BB  23025.45449306  .00000996  00000-0  80688-4 0  9996,2 52380  53.2171 253.3459 0001332  89.8322 270.2823 15.08840204 44072,6917.88,95.438,540.6659999999999,538.823,0.0
52380.0,STARLINK-3793,PAYLOAD,2023-01-26 13:56:01,15.08839911,0.0001122,53.2169,248.2882,85.0131,275.0989,0.00010405,1.369e-05,0.0,0 STARLINK-3793,1 52380U 22045BB  23026.58057617  .00001369  00000-0  10405-3 0  9995,2 52380  53.2169 248.2882 0001122  85.0131 275.0989 15.08839911 44243,6917.880999999999,95.438,540.5219999999999,538.969,0.0
52380.0,STARLINK-3793,PAYLOAD,2023-01-26 21:52:57,15.08846318,0.0001165,53.216,246.8014,83.4436,276.6689,0.00016231,2.297e-05,0.0,0 STARLINK-3793,1 52380U 22045BB  23026.91177102  .00002297  00000-0  16231-3 0  9998,2 52380  53.2160 246.8014 0001165  83.4436 276.6689 15.08846318 44290,6917.861,95.437,540.5319999999999,538.92,0.0
52380.0,STARLINK-3793,PAYLOAD,2023-01-27 18:32:58,15.08832216,0.0001196,53.2163,242.9362,80.8269,279.2859,4.1603e-05,3.74e-06,0.0,0 STARLINK-3793,1 52380U 22045BB  23027.77290038  .00000374  00000-0  41603-4 0  9993,2 52380  53.2163 242.9362 0001196  80.8269 279.2859 15.08832216 44420,6917.904,95.438,540.597,538.942,0.0
52380.0,STARLINK-3793,PAYLOAD,2023-01-27 21:43:45,15.08832704,0.0001179,53.217,242.3414,84.1836,275.92900000000003,9.8059e-05,1.273e-05,0.0,0 STARLINK-3793,1 52380U 22045BB  23027.90538341  .00001273  00000-0  98059-4 0  9996,2 52380  53.2170 242.3414 0001179  84.1836 275.9290 15.08832704 44444,6917.903,95.438,540.5830000000001,538.952,0.0
52380.0,STARLINK-3793,PAYLOAD,2023-01-28 12:02:13,15.08841511,0.0001132,53.2167,239.665,73.7012,286.4104,3.3886e-05,2.52e-06,0.0,0 STARLINK-3793,1 52380U 22045BB  23028.50154098  .00000252  00000-0  33886-4 0  9999,2 52380  53.2167 239.6650 0001132  73.7012 286.4104 15.08841511 44537,6917.876,95.437,540.524,538.958,0.0
52380.0,STARLINK-3793,PAYLOAD,2023-01-28 19:59:08,15.08843291,0.0001188,53.2168,238.1783,83.2999,276.8128,4.1806e-05,3.78e-06,0.0,0 STARLINK-3793,1 52380U 22045BB  23028.83273890  .00000378  00000-0  41806-4 0  9997,2 52380  53.2168 238.1783 0001188  83.2999 276.8128 15.08843291 44581,6917.87,95.437,540.557,538.913,0.0
52380.0,STARLINK-3793,PAYLOAD,2023-01-28 21:34:31,15.08843679,0.0001195,53.2168,237.881,82.3409,277.7719,4.1521e-05,3.73e-06,0.0,0 STARLINK-3793,1 52380U 22045BB  23028.89897840  .00000373  00000-0  41521-4 0  9999,2 52380  53.2168 237.8810 0001195  82.3409 277.7719 15.08843679 44599,6917.869,95.437,540.561,538.907,0.0
52380.0,STARLINK-3793,PAYLOAD,2023-01-29 19:49:55,15.08842423,0.0001199,53.2167,233.7174,83.922,276.1909,0.00012269,1.665e-05,0.0,0 STARLINK-3793,1 52380U 22045BB  23029.82633657  .00001665  00000-0  12269-3 0  9998,2 52380  53.2167 233.7174 0001199  83.9220 276.1909 15.08842423 44734,6917.873,95.437,540.567,538.909,0.0
52380.0,STARLINK-3793,PAYLOAD,2023-01-30 19:40:42,15.08843213,0.00012,53.2165,229.2565,86.8108,273.3022,7.8752e-05,9.66e-06,0.0,0 STARLINK-3793,1 52380U 22045BB  23030.81993630  .00000966  00000-0  78752-4 0  9992,2 52380  53.2165 229.2565 0001200  86.8108 273.3022 15.08843213 44885,6917.871,95.437,540.566,538.905,0.0
52380.0,STARLINK-3793,PAYLOAD,2023-01-31 19:31:29,15.08837872,0.0001133,53.2165,224.7964,85.0506,275.0615,1.1888e-05,-9.9e-07,0.0,0 STARLINK-3793,1 52380U 22045BB  23031.81354094 -.00000099  00000-0  11888-4 0  9993,2 52380  53.2165 224.7964 0001133  85.0506 275.0615 15.08837872 45035,6917.887,95.438,540.536,538.968,0.0
52380.0,STARLINK-3793,PAYLOAD,2023-02-01 13:00:43,15.08841174,0.0001129,53.2159,221.5259,85.7084,274.4038,8.5837e-05,1.079e-05,0.0,0 STARLINK-3793,1 52380U 22045BB  23032.54217554  .00001079  00000-0  85837-4 0  9996,2 52380  53.2159 221.5259 0001129  85.7084 274.4038 15.08841174 45147,6917.877,95.437,540.523,538.961,0.0
52380.0,STARLINK-3793,PAYLOAD,2023-02-01 22:33:06,15.08794486,3.27e-05,53.2182,219.7444,32.3214,327.7798,-0.00025994,-4.417e-05,0.0,0 STARLINK-3793,1 52380U 22045BB  23032.93965673 -.00004417  00000-0 -25994-3 0  9999,2 52380  53.2182 219.7444 0000327  32.3214 327.7798 15.08794486 45205,6918.02,95.44,540.111,539.658,0.0
